[{"OBJECT_NAME":"STARLINK-30391","OBJECT_ID":"2023-138K","EPOCH":"2026-03-09T22:00:01.999584","MEAN_MOTION":15.26680163,"ECCENTRICITY":0.00016736,"INCLINATION":43.0001,"RA_OF_ASC_NODE":233.1388,"ARG_OF_PERICENTER":287.9254,"MEAN_ANOMALY":308.8017,"EPHEMERIS_TYPE":0,"CLASSIFICATION_TYPE":"U","NORAD_CAT_ID":57817,"ELEMENT_SET_NO":999,"REV_AT_EPOCH":578,"BSTAR":0.00293751,"MEAN_MOTION_DOT":0.00079242,"MEAN_MOTION_DDOT":0},{"OBJECT_NAME":"NUSAT-48 (HENRIETTA LEAVITT)","OBJECT_ID":"2024-149AG","EPOCH":"2026-03-09T19:19:17.269536","MEAN_MOTION":15.29812597,"ECCENTRICITY":0.00027538,"INCLINATION":97.3923,"RA_OF_ASC_NODE":150.8264,"ARG_OF_PERICENTER":263.3026,"MEAN_ANOMALY":96.7901,"EPHEMERIS_TYPE":0,"CLASSIFICATION_TYPE":"U","NORAD_CAT_ID":60498,"ELEMENT_SET_NO":999,"REV_AT_EPOCH":8694,"BSTAR":0.00045211745,"MEAN_MOTION_DOT":0.00012988,"MEAN_MOTION_DDOT":0}]
